CCSDS_OMM_VERS = 2.0
CREATION_DATE  = 
ORIGINATOR     = 

OBJECT_NAME    = TRANSPORTER-15DL
OBJECT_ID      = 2025-276DL
CENTER_NAME    = EARTH
REF_FRAME      = TEME
TIME_SYSTEM    = UTC
MEAN_ELEMENT_THEORY = SGP/SGP4

EPOCH          = 2025-12-23T20:43:42.367584
MEAN_MOTION    = 15.18700107
ECCENTRICITY   = .00029777
INCLINATION    = 97.4434
RA_OF_ASC_NODE = 69.4851
ARG_OF_PERICENTER = 100.9072
MEAN_ANOMALY   = 259.2497

EPHEMERIS_TYPE = 0
CLASSIFICATION_TYPE = U
NORAD_CAT_ID   = 66772
ELEMENT_SET_NO = 999
REV_AT_EPOCH   = 381
BSTAR          = .5465472E-3
MEAN_MOTION_DOT = .1128E-3
MEAN_MOTION_DDOT = 0

CCSDS_OMM_VERS = 2.0
CREATION_DATE  = 
ORIGINATOR     = 

OBJECT_NAME    = TRANSPORTER-15DM
OBJECT_ID      = 2025-276DM
CENTER_NAME    = EARTH
REF_FRAME      = TEME
TIME_SYSTEM    = UTC
MEAN_ELEMENT_THEORY = SGP/SGP4

EPOCH          = 2025-12-23T22:20:26.872512
MEAN_MOTION    = 15.18534776
ECCENTRICITY   = .00031958
INCLINATION    = 97.4430
RA_OF_ASC_NODE = 69.5474
ARG_OF_PERICENTER = 99.5382
MEAN_ANOMALY   = 260.6214

EPHEMERIS_TYPE = 0
CLASSIFICATION_TYPE = U
NORAD_CAT_ID   = 66773
ELEMENT_SET_NO = 999
REV_AT_EPOCH   = 382
BSTAR          = .31272295E-3
MEAN_MOTION_DOT = .6391E-4
MEAN_MOTION_DDOT = 0

CCSDS_OMM_VERS = 2.0
CREATION_DATE  = 
ORIGINATOR     = 

OBJECT_NAME    = TRANSPORTER-15DN
OBJECT_ID      = 2025-276DN
CENTER_NAME    = EARTH
REF_FRAME      = TEME
TIME_SYSTEM    = UTC
MEAN_ELEMENT_THEORY = SGP/SGP4

EPOCH          = 2025-12-23T20:44:47.584032
MEAN_MOTION    = 15.18597122
ECCENTRICITY   = .00030317
INCLINATION    = 97.4415
RA_OF_ASC_NODE = 69.4788
ARG_OF_PERICENTER = 97.6511
MEAN_ANOMALY   = 262.5067

EPHEMERIS_TYPE = 0
CLASSIFICATION_TYPE = U
NORAD_CAT_ID   = 66774
ELEMENT_SET_NO = 999
REV_AT_EPOCH   = 381
BSTAR          = .50310195E-3
MEAN_MOTION_DOT = .10346E-3
MEAN_MOTION_DDOT = 0

CCSDS_OMM_VERS = 2.0
CREATION_DATE  = 
ORIGINATOR     = 

OBJECT_NAME    = PHI 1
OBJECT_ID      = 2025-276DP
CENTER_NAME    = EARTH
REF_FRAME      = TEME
TIME_SYSTEM    = UTC
MEAN_ELEMENT_THEORY = SGP/SGP4

EPOCH          = 2025-12-23T22:18:30.259296
MEAN_MOTION    = 15.18659243
ECCENTRICITY   = .00028577
INCLINATION    = 97.4340
RA_OF_ASC_NODE = 69.5225
ARG_OF_PERICENTER = 67.2683
MEAN_ANOMALY   = 292.8853

EPHEMERIS_TYPE = 0
CLASSIFICATION_TYPE = U
NORAD_CAT_ID   = 66775
ELEMENT_SET_NO = 999
REV_AT_EPOCH   = 382
BSTAR          = .36719105E-3
MEAN_MOTION_DOT = .7544E-4
MEAN_MOTION_DDOT = 0

CCSDS_OMM_VERS = 2.0
CREATION_DATE  = 
ORIGINATOR     = 

OBJECT_NAME    = TRANSPORTER-15DQ
OBJECT_ID      = 2025-276DQ
CENTER_NAME    = EARTH
REF_FRAME      = TEME
TIME_SYSTEM    = UTC
MEAN_ELEMENT_THEORY = SGP/SGP4

EPOCH          = 2025-12-23T22:17:56.537376
MEAN_MOTION    = 15.18706103
ECCENTRICITY   = .00029501
INCLINATION    = 97.4379
RA_OF_ASC_NODE = 69.5345
ARG_OF_PERICENTER = 82.8559
MEAN_ANOMALY   = 277.3011

EPHEMERIS_TYPE = 0
CLASSIFICATION_TYPE = U
NORAD_CAT_ID   = 66776
ELEMENT_SET_NO = 999
REV_AT_EPOCH   = 382
BSTAR          = .42950898E-3
MEAN_MOTION_DOT = .8849E-4
MEAN_MOTION_DDOT = 0

CCSDS_OMM_VERS = 2.0
CREATION_DATE  = 
ORIGINATOR     = 

OBJECT_NAME    = TRANSPORTER-15DR
OBJECT_ID      = 2025-276DR
CENTER_NAME    = EARTH
REF_FRAME      = TEME
TIME_SYSTEM    = UTC
MEAN_ELEMENT_THEORY = SGP/SGP4

EPOCH          = 2025-12-23T20:39:32.006304
MEAN_MOTION    = 15.18937505
ECCENTRICITY   = .00035208
INCLINATION    = 97.4467
RA_OF_ASC_NODE = 69.4998
ARG_OF_PERICENTER = 109.1478
MEAN_ANOMALY   = 251.0138

EPHEMERIS_TYPE = 0
CLASSIFICATION_TYPE = U
NORAD_CAT_ID   = 66777
ELEMENT_SET_NO = 999
REV_AT_EPOCH   = 381
BSTAR          = .56936337E-3
MEAN_MOTION_DOT = .11836E-3
MEAN_MOTION_DDOT = 0

CCSDS_OMM_VERS = 2.0
CREATION_DATE  = 
ORIGINATOR     = 

OBJECT_NAME    = TRANSPORTER-15DS
OBJECT_ID      = 2025-276DS
CENTER_NAME    = EARTH
REF_FRAME      = TEME
TIME_SYSTEM    = UTC
MEAN_ELEMENT_THEORY = SGP/SGP4

EPOCH          = 2025-12-18T19:26:21.991200
MEAN_MOTION    = 15.16535337
ECCENTRICITY   = .00032319
INCLINATION    = 97.4427
RA_OF_ASC_NODE = 64.4586
ARG_OF_PERICENTER = 41.3734
MEAN_ANOMALY   = 318.7744

EPHEMERIS_TYPE = 0
CLASSIFICATION_TYPE = U
NORAD_CAT_ID   = 66778
ELEMENT_SET_NO = 999
REV_AT_EPOCH   = 304
BSTAR          = .25483693E-3
MEAN_MOTION_DOT = .4904E-4
MEAN_MOTION_DDOT = 0

CCSDS_OMM_VERS = 2.0
CREATION_DATE  = 
ORIGINATOR     = 

OBJECT_NAME    = STARLINK-35867
OBJECT_ID      = 2025-278A
CENTER_NAME    = EARTH
REF_FRAME      = TEME
TIME_SYSTEM    = UTC
MEAN_ELEMENT_THEORY = SGP/SGP4

EPOCH          = 2025-12-24T00:00:00.999648
MEAN_MOTION    = 15.49932366
ECCENTRICITY   = .00020116
INCLINATION    = 42.9993
RA_OF_ASC_NODE = 184.3803
ARG_OF_PERICENTER = 272.5282
MEAN_ANOMALY   = 96.7843

EPHEMERIS_TYPE = 0
CLASSIFICATION_TYPE = U
NORAD_CAT_ID   = 66791
ELEMENT_SET_NO = 999
REV_AT_EPOCH   = 476
BSTAR          = -.38859207E-1
MEAN_MOTION_DOT = -.1991268E-1
MEAN_MOTION_DDOT = 0

CCSDS_OMM_VERS = 2.0
CREATION_DATE  = 
ORIGINATOR     = 

OBJECT_NAME    = STARLINK-35990
OBJECT_ID      = 2025-278B
CENTER_NAME    = EARTH
REF_FRAME      = TEME
TIME_SYSTEM    = UTC
MEAN_ELEMENT_THEORY = SGP/SGP4

EPOCH          = 2025-12-24T00:00:00.999648
MEAN_MOTION    = 15.50489076
ECCENTRICITY   = .00017763
INCLINATION    = 42.9998
RA_OF_ASC_NODE = 184.3750
ARG_OF_PERICENTER = 270.5661
MEAN_ANOMALY   = 100.8560

EPHEMERIS_TYPE = 0
CLASSIFICATION_TYPE = U
NORAD_CAT_ID   = 66792
ELEMENT_SET_NO = 999
REV_AT_EPOCH   = 476
BSTAR          = .20191553E-2
MEAN_MOTION_DOT = .119555E-2
MEAN_MOTION_DDOT = 0

CCSDS_OMM_VERS = 2.0
CREATION_DATE  = 
ORIGINATOR     = 

OBJECT_NAME    = STARLINK-36051
OBJECT_ID      = 2025-278C
CENTER_NAME    = EARTH
REF_FRAME      = TEME
TIME_SYSTEM    = UTC
MEAN_ELEMENT_THEORY = SGP/SGP4

EPOCH          = 2025-12-24T00:00:00.999648
MEAN_MOTION    = 15.50475620
ECCENTRICITY   = .00015449
INCLINATION    = 42.9999
RA_OF_ASC_NODE = 184.3655
ARG_OF_PERICENTER = 268.4590
MEAN_ANOMALY   = 106.8157

EPHEMERIS_TYPE = 0
CLASSIFICATION_TYPE = U
NORAD_CAT_ID   = 66793
ELEMENT_SET_NO = 999
REV_AT_EPOCH   = 467
BSTAR          = .25855427E-2
MEAN_MOTION_DOT = .153789E-2
MEAN_MOTION_DDOT = 0

CCSDS_OMM_VERS = 2.0
CREATION_DATE  = 
ORIGINATOR     = 

OBJECT_NAME    = STARLINK-36062
OBJECT_ID      = 2025-278D
CENTER_NAME    = EARTH
REF_FRAME      = TEME
TIME_SYSTEM    = UTC
MEAN_ELEMENT_THEORY = SGP/SGP4

EPOCH          = 2025-12-24T00:00:00.999648
MEAN_MOTION    = 15.50490253
ECCENTRICITY   = .00020896
INCLINATION    = 42.9996
RA_OF_ASC_NODE = 184.3695
ARG_OF_PERICENTER = 268.4726
MEAN_ANOMALY   = 104.8676

EPHEMERIS_TYPE = 0
CLASSIFICATION_TYPE = U
NORAD_CAT_ID   = 66794
ELEMENT_SET_NO = 999
REV_AT_EPOCH   = 476
BSTAR          = .19752088E-2
MEAN_MOTION_DOT = .116913E-2
MEAN_MOTION_DDOT = 0

CCSDS_OMM_VERS = 2.0
CREATION_DATE  = 
ORIGINATOR     = 

OBJECT_NAME    = STARLINK-36047
OBJECT_ID      = 2025-278E
CENTER_NAME    = EARTH
REF_FRAME      = TEME
TIME_SYSTEM    = UTC
MEAN_ELEMENT_THEORY = SGP/SGP4

EPOCH          = 2025-12-24T00:00:00.999648
MEAN_MOTION    = 15.50555190
ECCENTRICITY   = .00016892
INCLINATION    = 42.9997
RA_OF_ASC_NODE = 184.3601
ARG_OF_PERICENTER = 264.6894
MEAN_ANOMALY   = 112.4975

EPHEMERIS_TYPE = 0
CLASSIFICATION_TYPE = U
NORAD_CAT_ID   = 66795
ELEMENT_SET_NO = 999
REV_AT_EPOCH   = 467
BSTAR          = -.35275776E-3
MEAN_MOTION_DOT = -.20964E-3
MEAN_MOTION_DDOT = 0

