TRANSPORTER-15DL        
1 66772U 25276DL  25357.86368481  .00011280  00000+0  54655-3 0  9995
2 66772  97.4434  69.4851 0002977 100.9072 259.2497 15.18700107  3818
TRANSPORTER-15DM        
1 66773U 25276DM  25357.93086658  .00006391  00000+0  31272-3 0  9994
2 66773  97.4430  69.5474 0003195  99.5382 260.6214 15.18534776  3828
TRANSPORTER-15DN        
1 66774U 25276DN  25357.86443963  .00010346  00000+0  50310-3 0  9992
2 66774  97.4415  69.4788 0003031  97.6511 262.5067 15.18597122  3811
PHI 1                   
1 66775U 25276DP  25357.92951689  .00007544  00000+0  36719-3 0  9992
2 66775  97.4340  69.5225 0002857  67.2683 292.8853 15.18659243  3827
TRANSPORTER-15DQ        
1 66776U 25276DQ  25357.92912659  .00008849  00000+0  42951-3 0  9991
2 66776  97.4379  69.5345 0002950  82.8559 277.3011 15.18706103  3824
TRANSPORTER-15DR        
1 66777U 25276DR  25357.86078711  .00011836  00000+0  56936-3 0  9995
2 66777  97.4467  69.4998 0003520 109.1478 251.0138 15.18937505  3813
TRANSPORTER-15DS        
1 66778U 25276DS  25352.80997675  .00004904  00000+0  25484-3 0  9996
2 66778  97.4427  64.4586 0003231  41.3734 318.7744 15.16535337  3043
STARLINK-35867          
1 66791U 25278A   25358.00001157 -.01991268  00000+0 -38859-1 0  9991
2 66791  42.9993 184.3803 0002011 272.5282  96.7843 15.49932366  4768
STARLINK-35990          
1 66792U 25278B   25358.00001157  .00119555  00000+0  20192-2 0  9992
2 66792  42.9998 184.3750 0001776 270.5661 100.8560 15.50489076  4761
STARLINK-36051          
1 66793U 25278C   25358.00001157  .00153789  00000+0  25855-2 0  9991
2 66793  42.9999 184.3655 0001544 268.4590 106.8157 15.50475620  4675
STARLINK-36062          
1 66794U 25278D   25358.00001157  .00116913  00000+0  19752-2 0  9999
2 66794  42.9996 184.3695 0002089 268.4726 104.8676 15.50490253  4766
STARLINK-36047          
1 66795U 25278E   25358.00001157 -.00020964  00000+0 -35276-3 0  9992
2 66795  42.9997 184.3601 0001689 264.6894 112.4975 15.50555190  4673
